{"type": "FeatureCollection", "features": [ {"type": "Feature", "properties": {"norad_id": 31195, "name": "FENGYUN 1C DEB", "group": "fengyun-1c-debris", "lat": -8.934565465888015, "lon": 30.624574791393936, "alt_km": 989.7600333034306, "timestamp": "2025-12-22T04:03:39.450268+00:00", "meta": {"OBJECT_NAME": "FENGYUN 1C DEB", "OBJECT_ID": "1999-025BJZ", "EPOCH": "2025-12-19T13:00:00.093600", "MEAN_MOTION": 14.07982879, "ECCENTRICITY": 0.0172211, "INCLINATION": 98.7783, "RA_OF_ASC_NODE": 26.6764, "ARG_OF_PERICENTER": 162.028, "MEAN_ANOMALY": 198.7081, "EPHEMERIS_TYPE": 0, "CLASSIFICATION_TYPE": "U", "NORAD_CAT_ID": 31195, "ELEMENT_SET_NO": 999, "REV_AT_EPOCH": 96194, "BSTAR": 0.00014129, "MEAN_MOTION_DOT": 2.33e-06, "MEAN_MOTION_DDOT": 0}, "tle": {"line1": "1 31195U 99025BJZ 25353.54166775  .00000233  00000+0  14129-3 0  9990", "line2": "2 31195  98.7783  26.6764 0172211 162.0280 198.7081 14.07982879961945"}}, "geometry": {"type": "Point", "coordinates": [30.624574791393936, -8.934565465888015]}}, {"type": "Feature", "properties": {"norad_id": 31196, "name": "FENGYUN 1C DEB", "group": "fengyun-1c-debris", "lat": 10.156502675076856, "lon": -169.32872396631666, "alt_km": 767.9479091773392, "timestamp": "2025-12-22T04:03:39.450290+00:00", "meta": {"OBJECT_NAME": "FENGYUN 1C DEB", "OBJECT_ID": "1999-025BKA", "EPOCH": "2025-12-20T07:28:00.268608", "MEAN_MOTION": 14.25476414, "ECCENTRICITY": 0.00582224, "INCLINATION": 98.5261, "RA_OF_ASC_NODE": 7.3249, "ARG_OF_PERICENTER": 189.9584, "MEAN_ANOMALY": 170.0447, "EPHEMERIS_TYPE": 0, "CLASSIFICATION_TYPE": "U", "NORAD_CAT_ID": 31196, "ELEMENT_SET_NO": 999, "REV_AT_EPOCH": 63603, "BSTAR": 0.00037193208, "MEAN_MOTION_DOT": 8.52e-06, "MEAN_MOTION_DDOT": 0}, "tle": {"line1": "1 31196U 99025BKA 25354.31111422  .00000852  00000+0  37193-3 0  9999", "line2": "2 31196  98.5261   7.3249 0058222 189.9584 170.0447 14.25476414636030"}}, "geometry": {"type": "Point", "coordinates": [-169.32872396631666, 10.156502675076856]}}, {"type": "Feature", "properties": {"norad_id": 31198, "name": "FENGYUN 1C DEB", "group": "fengyun-1c-debris", "lat": -63.19996921013183, "lon": 116.59527333589442, "alt_km": 857.3856050643599, "timestamp": "2025-12-22T04:03:39.450301+00:00", "meta": {"OBJECT_NAME": "FENGYUN 1C DEB", "OBJECT_ID": "1999-025BKC", "EPOCH": "2025-12-21T12:39:03.209472", "MEAN_MOTION": 13.75523254, "ECCENTRICITY": 0.02034489, "INCLINATION": 98.6125, "RA_OF_ASC_NODE": 98.5558, "ARG_OF_PERICENTER": 327.9056, "MEAN_ANOMALY": 30.9841, "EPHEMERIS_TYPE": 0, "CLASSIFICATION_TYPE": "U", "NORAD_CAT_ID": 31198, "ELEMENT_SET_NO": 999, "REV_AT_EPOCH": 62874, "BSTAR": 9.9063959e-05, "MEAN_MOTION_DOT": 7.1e-07, "MEAN_MOTION_DDOT": 0}, "tle": {"line1": "1 31198U 99025BKC 25355.52712048  .00000071  00000+0  99064-4 0  9995", "line2": "2 31198  98.6125  98.5558 0203448 327.9056  30.9841 13.75523254628747"}}, "geometry": {"type": "Point", "coordinates": [116.59527333589442, -63.19996921013183]}}, {"type": "Feature", "properties": {"norad_id": 31199, "name": "FENGYUN 1C DEB", "group": "fengyun-1c-debris", "lat": 9.050953372804354, "lon": 160.0511971443344, "alt_km": 839.1811293493174, "timestamp": "2025-12-22T04:03:39.450312+00:00", "meta": {"OBJECT_NAME": "FENGYUN 1C DEB", "OBJECT_ID": "1999-025BKD", "EPOCH": "2025-12-21T17:52:34.552704", "MEAN_MOTION": 14.0999366, "ECCENTRICITY": 0.0063485, "INCLINATION": 98.7153, "RA_OF_ASC_NODE": 338.24, "ARG_OF_PERICENTER": 233.847, "MEAN_ANOMALY": 304.6708, "EPHEMERIS_TYPE": 0, "CLASSIFICATION_TYPE": "U", "NORAD_CAT_ID": 31199, "ELEMENT_SET_NO": 999, "REV_AT_EPOCH": 96286, "BSTAR": 0.00010728, "MEAN_MOTION_DOT": 1.5e-06, "MEAN_MOTION_DDOT": 0}, "tle": {"line1": "1 31199U 99025BKD 25355.74484436  .00000150  00000+0  10728-3 0  9994", "line2": "2 31199  98.7153 338.2400 0063485 233.8470 304.6708 14.09993660962867"}}, "geometry": {"type": "Point", "coordinates": [160.0511971443344, 9.050953372804354]}}, {"type": "Feature", "properties": {"norad_id": 31201, "name": "FENGYUN 1C DEB", "group": "fengyun-1c-debris", "lat": 22.302663581866362, "lon": 41.18096502154772, "alt_km": 872.9051620191794, "timestamp": "2025-12-22T04:03:39.450322+00:00", "meta": {"OBJECT_NAME": "FENGYUN 1C DEB", "OBJECT_ID": "1999-025BKF", "EPOCH": "2025-12-20T03:24:07.452288", "MEAN_MOTION": 14.35202716, "ECCENTRICITY": 0.01423328, "INCLINATION": 99.0021, "RA_OF_ASC_NODE": 215.3385, "ARG_OF_PERICENTER": 329.669, "MEAN_ANOMALY": 158.619, "EPHEMERIS_TYPE": 0, "CLASSIFICATION_TYPE": "U", "NORAD_CAT_ID": 31201, "ELEMENT_SET_NO": 999, "REV_AT_EPOCH": 97357, "BSTAR": 0.00062316109, "MEAN_MOTION_DOT": 1.946e-05, "MEAN_MOTION_DDOT": 0}, "tle": {"line1": "1 31201U 99025BKF 25354.14175292  .00001946  00000+0  62316-3 0  9992", "line2": "2 31201  99.0021 215.3385 0142332 329.6690 158.6190 14.35202716973579"}}, "geometry": {"type": "Point", "coordinates": [41.18096502154772, 22.302663581866362]}}, {"type": "Feature", "properties": {"norad_id": 31202, "name": "FENGYUN 1C DEB", "group": "fengyun-1c-debris", "lat": 13.285463018799952, "lon": -138.67653664850627, "alt_km": 572.0738159689645, "timestamp": "2025-12-22T04:03:39.450333+00:00", "meta": {"OBJECT_NAME": "FENGYUN 1C DEB", "OBJECT_ID": "1999-025BKG", "EPOCH": "2025-12-21T09:34:57.882720", "MEAN_MOTION": 14.84207348, "ECCENTRICITY": 0.00689637, "INCLINATION": 96.5715, "RA_OF_ASC_NODE": 39.1289, "ARG_OF_PERICENTER": 148.3475, "MEAN_ANOMALY": 226.6402, "EPHEMERIS_TYPE": 0, "CLASSIFICATION_TYPE": "U", "NORAD_CAT_ID": 31202, "ELEMENT_SET_NO": 999, "REV_AT_EPOCH": 99283, "BSTAR": 0.00068153485, "MEAN_MOTION_DOT": 5.909e-05, "MEAN_MOTION_DDOT": 0}, "tle": {"line1": "1 31202U 99025BKG 25355.39928105  .00005909  00000+0  68153-3 0  9998", "line2": "2 31202  96.5715  39.1289 0068963 148.3475 226.6402 14.84207348992833"}}, "geometry": {"type": "Point", "coordinates": [-138.67653664850627, 13.285463018799952]}}, {"type": "Feature", "properties": {"norad_id": 31205, "name": "FENGYUN 1C DEB", "group": "fengyun-1c-debris", "lat": -46.00758988291498, "lon": -99.8974471217877, "alt_km": 752.4270290524646, "timestamp": "2025-12-22T04:03:39.450345+00:00", "meta": {"OBJECT_NAME": "FENGYUN 1C DEB", "OBJECT_ID": "1999-025BKK", "EPOCH": "2025-12-20T17:16:48.203040", "MEAN_MOTION": 14.23963881, "ECCENTRICITY": 0.01622241, "INCLINATION": 99.2286, "RA_OF_ASC_NODE": 88.2765, "ARG_OF_PERICENTER": 174.6763, "MEAN_ANOMALY": 185.6187, "EPHEMERIS_TYPE": 0, "CLASSIFICATION_TYPE": "U", "NORAD_CAT_ID": 31205, "ELEMENT_SET_NO": 999, "REV_AT_EPOCH": 97324, "BSTAR": 0.00010850538, "MEAN_MOTION_DOT": 2.35e-06, "MEAN_MOTION_DDOT": 0}, "tle": {"line1": "1 31205U 99025BKK 25354.72000235  .00000235  00000+0  10851-3 0  9991", "line2": "2 31205  99.2286  88.2765 0162224 174.6763 185.6187 14.23963881973242"}}, "geometry": {"type": "Point", "coordinates": [-99.8974471217877, -46.00758988291498]}}, {"type": "Feature", "properties": {"norad_id": 31206, "name": "FENGYUN 1C DEB", "group": "fengyun-1c-debris", "lat": 81.03178479071084, "lon": -176.19722647380655, "alt_km": 771.8228250705297, "timestamp": "2025-12-22T04:03:39.450356+00:00", "meta": {"OBJECT_NAME": "FENGYUN 1C DEB", "OBJECT_ID": "1999-025BKL", "EPOCH": "2025-12-20T11:38:44.704896", "MEAN_MOTION": 14.40532561, "ECCENTRICITY": 0.00774034, "INCLINATION": 98.8442, "RA_OF_ASC_NODE": 262.6685, "ARG_OF_PERICENTER": 339.0267, "MEAN_ANOMALY": 20.7751, "EPHEMERIS_TYPE": 0, "CLASSIFICATION_TYPE": "U", "NORAD_CAT_ID": 31206, "ELEMENT_SET_NO": 999, "REV_AT_EPOCH": 97957, "BSTAR": 0.0005088511, "MEAN_MOTION_DOT": 1.629e-05, "MEAN_MOTION_DDOT": 0}, "tle": {"line1": "1 31206U 99025BKL 25354.48523964  .00001629  00000+0  50885-3 0  9993", "line2": "2 31206  98.8442 262.6685 0077403 339.0267  20.7751 14.40532561979575"}}, "geometry": {"type": "Point", "coordinates": [-176.19722647380655, 81.03178479071084]}}, {"type": "Feature", "properties": {"norad_id": 31208, "name": "FENGYUN 1C DEB", "group": "fengyun-1c-debris", "lat": -21.114227173683513, "lon": 144.57794623658836, "alt_km": 692.8057789557488, "timestamp": "2025-12-22T04:03:39.450366+00:00", "meta": {"OBJECT_NAME": "FENGYUN 1C DEB", "OBJECT_ID": "1999-025BKN", "EPOCH": "2025-12-13T08:25:55.088256", "MEAN_MOTION": 14.61862471, "ECCENTRICITY": 0.00160842, "INCLINATION": 99.2396, "RA_OF_ASC_NODE": 131.1249, "ARG_OF_PERICENTER": 265.8015, "MEAN_ANOMALY": 126.2818, "EPHEMERIS_TYPE": 0, "CLASSIFICATION_TYPE": "U", "NORAD_CAT_ID": 31208, "ELEMENT_SET_NO": 999, "REV_AT_EPOCH": 70488, "BSTAR": 0.0052061327, "MEAN_MOTION_DOT": 0.00026113, "MEAN_MOTION_DDOT": 0}, "tle": {"line1": "1 31208U 99025BKN 25347.35133204  .00026113  00000+0  52061-2 0  9999", "line2": "2 31208  99.2396 131.1249 0016084 265.8015 126.2818 14.61862471704886"}}, "geometry": {"type": "Point", "coordinates": [144.57794623658836, -21.114227173683513]}}, {"type": "Feature", "properties": {"norad_id": 31209, "name": "FENGYUN 1C DEB", "group": "fengyun-1c-debris", "lat": -80.9464660319346, "lon": 170.6532896273946, "alt_km": 742.1335825613751, "timestamp": "2025-12-22T04:03:39.450378+00:00", "meta": {"OBJECT_NAME": "FENGYUN 1C DEB", "OBJECT_ID": "1999-025BKP", "EPOCH": "2025-12-21T00:11:20.723136", "MEAN_MOTION": 14.43601309, "ECCENTRICITY": 0.00221345, "INCLINATION": 98.8841, "RA_OF_ASC_NODE": 90.4449, "ARG_OF_PERICENTER": 316.9887, "MEAN_ANOMALY": 42.9572, "EPHEMERIS_TYPE": 0, "CLASSIFICATION_TYPE": "U", "NORAD_CAT_ID": 31209, "ELEMENT_SET_NO": 999, "REV_AT_EPOCH": 64927, "BSTAR": 0.001595757, "MEAN_MOTION_DOT": 5.381e-05, "MEAN_MOTION_DDOT": 0}, "tle": {"line1": "1 31209U 99025BKP 25355.00787874  .00005381  00000+0  15958-2 0  9997", "line2": "2 31209  98.8841  90.4449 0022134 316.9887  42.9572 14.43601309649277"}}, "geometry": {"type": "Point", "coordinates": [170.6532896273946, -80.9464660319346]}}]}